[{"OBJECT_NAME":"STARLINK-32925","OBJECT_ID":"2025-037Q","EPOCH":"2026-03-09T22:33:32.029920","MEAN_MOTION":14.98349057,"ECCENTRICITY":0.00027736,"INCLINATION":70.0031,"RA_OF_ASC_NODE":353.6578,"ARG_OF_PERICENTER":277.0529,"MEAN_ANOMALY":83.0315,"EPHEMERIS_TYPE":0,"CLASSIFICATION_TYPE":"U","NORAD_CAT_ID":63091,"ELEMENT_SET_NO":999,"REV_AT_EPOCH":5858,"BSTAR":0.0010114235,"MEAN_MOTION_DOT":0.00012002,"MEAN_MOTION_DDOT":0},{"OBJECT_NAME":"CZ-6A DEB","OBJECT_ID":"2022-151AM","EPOCH":"2026-03-09T19:08:00.092256","MEAN_MOTION":14.7152989,"ECCENTRICITY":0.01168946,"INCLINATION":98.7476,"RA_OF_ASC_NODE":167.8394,"ARG_OF_PERICENTER":167.6861,"MEAN_ANOMALY":192.7245,"EPHEMERIS_TYPE":0,"CLASSIFICATION_TYPE":"U","NORAD_CAT_ID":54294,"ELEMENT_SET_NO":999,"REV_AT_EPOCH":17641,"BSTAR":0.0014817554,"MEAN_MOTION_DOT":0.0001019,"MEAN_MOTION_DDOT":0}]
